NORAD_CAT_ID,OBJECT_NAME,OBJECT_TYPE,EPOCH,MEAN_MOTION,ECCENTRICITY,INCLINATION,RA_OF_ASC_NODE,ARG_OF_PERICENTER,MEAN_ANOMALY,BSTAR,MEAN_MOTION_DOT,MEAN_MOTION_DDOT,TLE_LINE0,TLE_LINE1,TLE_LINE2,SEMIMAJOR_AXIS,PERIOD,APOGEE,PERIGEE,DECAYED
53802.0,STARLINK-4726,PAYLOAD,2023-04-10 02:45:20,15.08845346,0.0001061,53.215,3.0528,101.6471,258.464,0.00058167,8.983e-05,0.0,0 STARLINK-4726,1 53802U 22111AF  23100.11481681  .00008983  00000-0  58167-3 0  9999,2 53802  53.2150   3.0528 0001061 101.6471 258.4640 15.08845346 33102,6917.864,95.437,540.463,538.995,0.0
53802.0,STARLINK-4726,PAYLOAD,2023-04-10 17:03:48,15.08842806,0.0001357,53.2158,0.3761,101.8901,258.2244,0.00031202,4.682e-05,0.0,0 STARLINK-4726,1 53802U 22111AF  23100.71098042  .00004682  00000-0  31202-3 0  9993,2 53802  53.2158   0.3761 0001357 101.8901 258.2244 15.08842806 33192,6917.872,95.437,540.676,538.798,0.0
53802.0,STARLINK-4726,PAYLOAD,2023-04-11 02:36:07,15.08848672,0.0001236,53.2145,358.5931,91.5156,268.5978,0.00047982,7.358e-05,0.0,0 STARLINK-4726,1 53802U 22111AF  23101.10841848  .00007358  00000-0  47982-3 0  9992,2 53802  53.2145 358.5931 0001236  91.5156 268.5978 15.08848672 33250,6917.854,95.437,540.574,538.864,0.0
53802.0,STARLINK-4726,PAYLOAD,2023-04-11 21:40:45,15.0883579,0.0001292,53.2157,355.0246,92.1148,267.9992,0.00029078,4.342e-05,0.0,0 STARLINK-4726,1 53802U 22111AF  23101.90330577  .00004342  00000-0  29078-3 0  9998,2 53802  53.2157 355.0246 0001292  92.1148 267.9992 15.08835790 33373,6917.893,95.438,540.652,538.864,0.0
53802.0,STARLINK-4726,PAYLOAD,2023-04-11 23:16:08,15.08837508,0.0001369,53.2155,354.7271,90.1055,270.0094,0.00036667,5.552e-05,0.0,0 STARLINK-4726,1 53802U 22111AF  23101.96954619  .00005552  00000-0  36667-3 0  9999,2 53802  53.2155 354.7271 0001369  90.1055 270.0094 15.08837508 33383,6917.888,95.438,540.7,538.806,0.0
53802.0,STARLINK-4726,PAYLOAD,2023-04-13 02:17:41,15.08858237,0.0001424,53.2158,349.6709,92.7252,267.3903,0.00071631,0.00011136,0.0,0 STARLINK-4726,1 53802U 22111AF  23103.09562225  .00011136  00000-0  71631-3 0  9998,2 53802  53.2158 349.6709 0001424  92.7252 267.3903 15.08858237 33553,6917.825,95.436,540.675,538.705,0.0
53802.0,STARLINK-4726,PAYLOAD,2023-04-14 05:19:14,15.08858023,0.0001272,53.2166,344.6159,79.2828,280.8307,0.00084343,0.00013167,0.0,0 STARLINK-4726,1 53802U 22111AF  23104.22170138  .00013167  00000-0  84343-3 0  9992,2 53802  53.2166 344.6159 0001272  79.2828 280.8307 15.08858023 32916,6917.825,95.436,540.57,538.81,0.0
53802.0,STARLINK-4726,PAYLOAD,2023-04-15 01:59:15,15.08868474,0.0001036,53.2164,340.7517,90.9664,269.1447,0.001963,0.00031116,0.0,0 STARLINK-4726,1 53802U 22111AF  23105.08282030  .00031116  00000-0  19630-2 0  9992,2 53802  53.2164 340.7517 0001036  90.9664 269.1447 15.08868474 33046,6917.793,95.436,540.375,538.942,0.0
53802.0,STARLINK-4726,PAYLOAD,2023-04-15 21:03:53,15.08842296,0.0001002,53.2158,337.1831,112.0885,248.0214,0.0011656,0.00018312,0.0,0 STARLINK-4726,1 53802U 22111AF  23105.87770760  .00018312  00000-0  11656-2 0  9994,2 53802  53.2158 337.1831 0001002 112.0885 248.0214 15.08842296 33976,6917.873,95.437,540.432,539.045,0.0
53802.0,STARLINK-4726,PAYLOAD,2023-04-16 00:14:40,15.08849463,9.84e-05,53.216,336.5879,110.1555,249.9543,0.00075692,0.00011782,0.0,0 STARLINK-4726,1 53802U 22111AF  23106.01018595  .00011782  00000-0  75692-3 0  9997,2 53802  53.2160 336.5879 0000984 110.1555 249.9543 15.08849463 33995,6917.851,95.437,540.397,539.036,0.0
53802.0,STARLINK-4726,PAYLOAD,2023-04-16 20:54:41,15.08839799,0.0001134,53.2157,332.7225,100.0372,260.0748,0.00074455,0.00011581,0.0,0 STARLINK-4726,1 53802U 22111AF  23106.87131051  .00011581  00000-0  74455-3 0  9997,2 53802  53.2157 332.7225 0001134 100.0372 260.0748 15.08839799 34125,6917.881,95.438,540.53,538.962,0.0
53802.0,STARLINK-4726,PAYLOAD,2023-04-17 01:40:50,15.08853984,0.0001031,53.2146,331.8291,111.1146,248.9956,0.00071998,0.00011193,0.0,0 STARLINK-4726,1 53802U 22111AF  23107.07002637  .00011193  00000-0  71998-3 0  9995,2 53802  53.2146 331.8291 0001031 111.1146 248.9956 15.08853984 34155,6917.838,95.437,540.416,538.989,0.0
53802.0,STARLINK-4726,PAYLOAD,2023-04-17 20:45:28,15.08846446,0.0001171,53.2155,328.2638,100.7865,259.3259,0.00040697,6.196e-05,0.0,0 STARLINK-4726,1 53802U 22111AF  23107.86490917  .00006196  00000-0  40697-3 0  9993,2 53802  53.2155 328.2638 0001171 100.7865 259.3259 15.08846446 34277,6917.861,95.437,540.536,538.916,0.0
53802.0,STARLINK-4726,PAYLOAD,2023-04-17 23:56:14,15.08852096,0.0001109,53.215,327.669,90.9639,269.148,0.00089408,0.00013975,0.0,0 STARLINK-4726,1 53802U 22111AF  23107.99738885  .00013975  00000-0  89408-3 0  9992,2 53802  53.2150 327.6690 0001109  90.9639 269.1480 15.08852096 34298,6917.843,95.437,540.476,538.941,0.0
53802.0,STARLINK-4726,PAYLOAD,2023-04-18 14:14:43,15.08842111,0.0001394,53.2137,324.9929,66.0751,294.0387,0.00043464,6.637e-05,0.0,0 STARLINK-4726,1 53802U 22111AF  23108.59355354  .00006637  00000-0  43464-3 0  9994,2 53802  53.2137 324.9929 0001394  66.0751 294.0387 15.08842111 33573,6917.874,95.437,540.703,538.775,0.0
53802.0,STARLINK-4726,PAYLOAD,2023-04-18 20:36:15,15.08840568,0.0001051,53.2143,323.8004,88.7602,271.351,0.00080993,0.00012626,0.0,0 STARLINK-4726,1 53802U 22111AF  23108.85851357  .00012626  00000-0  80993-3 0  9990,2 53802  53.2143 323.8004 0001051  88.7602 271.3510 15.08840568 34423,6917.879,95.438,540.471,539.017,0.0
53802.0,STARLINK-4726,PAYLOAD,2023-04-19 20:27:02,15.0886186,9.82e-05,53.2146,319.3403,83.5097,276.6007,0.001189,0.00018697,0.0,0 STARLINK-4726,1 53802U 22111AF  23109.85210831  .00018697  00000-0  11890-2 0  9990,2 53802  53.2146 319.3403 0000982  83.5097 276.6007 15.08861860 34575,6917.814,95.436,540.358,538.999,0.0
53802.0,STARLINK-4726,PAYLOAD,2023-04-20 13:56:15,15.08879125,0.0001048,53.2147,316.0684,88.5002,271.611,0.00081841,0.00012775,0.0,0 STARLINK-4726,1 53802U 22111AF  23110.58073258  .00012775  00000-0  81841-3 0  9997,2 53802  53.2147 316.0684 0001048  88.5002 271.6110 15.08879125 34681,6917.761,95.435,540.351,538.901,0.0
53802.0,STARLINK-4726,PAYLOAD,2023-04-20 23:28:34,15.08824773,0.0001374,53.2149,314.2836,92.1087,268.0062,-0.00074465,-0.00012114,0.0,0 STARLINK-4726,1 53802U 22111AF  23110.97818004 -.00012114  00000-0 -74465-3 0  9999,2 53802  53.2149 314.2836 0001374  92.1087 268.0062 15.08824773 33930,6917.927,95.439,540.742,538.841,0.0
53802.0,STARLINK-4726,PAYLOAD,2023-04-21 20:08:36,15.08833284,0.000119,53.214,310.4164,90.5185,269.5943,9.2047e-05,1.177e-05,0.0,0 STARLINK-4726,1 53802U 22111AF  23111.83930835  .00001177  00000-0  92047-4 0  9994,2 53802  53.2140 310.4164 0001190  90.5185 269.5943 15.08833284 34066,6917.901,95.438,540.589,538.943,0.0
53802.0,STARLINK-4726,PAYLOAD,2023-04-22 13:37:51,15.08843722,0.000153,53.2151,307.1476,103.4662,256.65,0.00067329,0.00010445,0.0,0 STARLINK-4726,1 53802U 22111AF  23112.56795556  .00010445  00000-0  67329-3 0  9996,2 53802  53.2151 307.1476 0001530 103.4662 256.6500 15.08843722 34984,6917.869,95.437,540.792,538.676,0.0
53802.0,STARLINK-4726,PAYLOAD,2023-04-22 19:59:23,15.08851538,0.0001407,53.2151,305.9588,103.5064,256.6085,0.00082117,0.00012809,0.0,0 STARLINK-4726,1 53802U 22111AF  23112.83291401  .00012809  00000-0  82117-3 0  9994,2 53802  53.2151 305.9588 0001407 103.5064 256.6085 15.08851538 35022,6917.845,95.437,540.683,538.737,0.0
53802.0,STARLINK-4726,PAYLOAD,2023-04-23 13:28:38,15.08843318,0.0001415,53.215,302.691,107.4372,252.6775,0.00039639,6.027e-05,0.0,0 STARLINK-4726,1 53802U 22111AF  23113.56155655  .00006027  00000-0  39639-3 0  9991,2 53802  53.2150 302.6910 0001415 107.4372 252.6775 15.08843318 34329,6917.87,95.437,540.714,538.756,0.0
53802.0,STARLINK-4726,PAYLOAD,2023-04-24 11:44:01,15.08875816,0.00012,53.2145,298.525,91.1258,268.9871,0.0011936,0.00018778,0.0,0 STARLINK-4726,1 53802U 22111AF  23114.48890837  .00018778  00000-0  11936-2 0  9996,2 53802  53.2145 298.5250 0001200  91.1258 268.9871 15.08875816 34467,6917.771,95.435,540.466,538.806,0.0
53802.0,STARLINK-4726,PAYLOAD,2023-04-25 11:34:49,15.08785623,0.0001136,53.2136,294.0661,73.7691,286.3426,-0.0019385,-0.00030961,0.0,0 STARLINK-4726,1 53802U 22111AF  23115.48252045 -.00030961  00000-0 -19385-2 0  9996,2 53802  53.2136 294.0661 0001136  73.7691 286.3426 15.08785623 34612,6918.047,95.441,540.697,539.126,0.0
53802.0,STARLINK-4726,PAYLOAD,2023-04-26 05:04:04,15.08833866,7.42e-05,53.2126,290.7945,48.1325,311.973,0.0014162,0.00022319,0.0,0 STARLINK-4726,1 53802U 22111AF  23116.21116555  .00022319  00000-0  14162-2 0  9997,2 53802  53.2126 290.7945 0000742  48.1325 311.9730 15.08833866 35539,6917.899,95.438,540.277,539.251,0.0
53802.0,STARLINK-4726,PAYLOAD,2023-04-26 17:47:09,15.08851425,9.04e-05,53.214,288.4113,82.6335,277.476,0.0016022,0.00025311,0.0,0 STARLINK-4726,1 53802U 22111AF  23116.74108353  .00025311  00000-0  16022-2 0  9994,2 53802  53.2140 288.4113 0000904  82.6335 277.4760 15.08851425 35619,6917.845,95.437,540.336,539.085,0.0
53802.0,STARLINK-4726,PAYLOAD,2023-04-27 04:54:50,15.08869358,9.54e-05,53.2191,286.3309,311.6439,48.4471,0.0007469,0.00011628,0.0,0 STARLINK-4726,1 53802U 22111AF  23117.20475115  .00011628  00000-0  74690-3 0  9991,2 53802  53.2191 286.3309 0000954 311.6439  48.4471 15.08869358 35680,6917.791,95.436,540.316,538.996,0.0
53802.0,STARLINK-4726,PAYLOAD,2023-04-27 20:48:42,15.08848243,0.0001531,53.2126,283.3589,57.0864,303.0275,6.4578e-05,7.4e-06,0.0,0 STARLINK-4726,1 53802U 22111AF  23117.86715800  .00000740  00000-0  64578-4 0  9999,2 53802  53.2126 283.3589 0001531  57.0864 303.0275 15.08848243 34973,6917.855,95.437,540.779,538.661,0.0
53802.0,STARLINK-4726,PAYLOAD,2023-04-28 12:42:33,15.08840736,8.33e-05,53.2143,280.3833,56.3758,303.7314,3.5115e-06,-2.32e-06,0.0,0 STARLINK-4726,1 53802U 22111AF  23118.52955966 -.00000232  00000-0  35115-5 0  9995,2 53802  53.2143 280.3833 0000833  56.3758 303.7314 15.08840736 35071,6917.878,95.438,540.319,539.167,0.0
